GOES 18                 
1 51850U 22021A   23144.46785535  .00000101  00000+0  00000+0 0  9993
2 51850   0.0424 119.8837 0000368 226.6720 286.6736  1.00271121  4557
CHINASAT 6D             
1 52255U 22038A   23143.98227856 -.00000350  00000+0  00000+0 0  9991
2 52255   0.0585 274.4319 0000825  95.2333 350.3367  1.00271956  4191
NILESAT 301             
1 52817U 22061A   23144.42410733 -.00000054  00000+0  00000+0 0  9990
2 52817   0.0542  28.0087 0005152  10.1915 349.2368  1.00271682  3512
CMS-02 (GSAT 24)        
1 52903U 22067A   23144.57849788 -.00000161  00000+0  00000+0 0  9993
2 52903   0.1028 265.3372 0007754 171.5159  96.3169  1.00272531  3392
MEASAT 3D               
1 52904U 22067B   23144.70264189 -.00000238  00000+0  00000+0 0  9990
2 52904   0.0267 355.2224 0002098   6.4022 224.8750  1.00271980  3428
SES-22                  
1 52933U 22071A   23144.42651150  .00000092  00000+0  00000+0 0  9991
2 52933   0.0152 304.1201 0001176 113.5415 202.6461  1.00270468  3314
WFOV (USA 332)          
1 52940U 22073A   23144.65736361 -.00000358  00000+0  00000+0 0  9990
2 52940   0.8210  93.9387 0002509  25.5015 118.4031  1.00276295  3144
TIANLIAN 2-03           
1 53100U 22078A   23144.08296750  .00000075  00000+0  00000+0 0  9999
2 53100   2.2274 281.7364 0002761 170.3679 189.8829  1.00265571  3328
SBIRS GEO-6 (USA 336)   
1 53355U 22092A   23144.60624462  .00000116  00000+0  00000+0 0  9996
2 53355   5.9921 311.2547 0007581 149.1186 214.8258  1.00272843  3014
EUTELSAT KONNECT VHTS   
1 53765U 22110A   23144.60314184  .00000021  00000+0  00000+0 0  9994
2 53765   0.0573 103.8941 0002899 304.6934  53.1736  1.00270931  2567
CHINASAT 1E (ZX 1E)     
1 53813U 22112A   23144.50789383 -.00000145  00000+0  00000+0 0  9994
2 53813   0.8739 278.0667 0002867 143.7646  84.2161  1.00271313  2618
SES-20                  
1 53960U 22123A   23144.44670787 -.00000097  00000+0  00000+0 0  9995
2 53960   0.0542 122.5111 0001735 317.7334 219.2431  1.00270366  2316
SES-21                  
1 53961U 22123B   23144.49243976  .00000073  00000+0  00000+0 0  9990
2 53961   0.0178  35.7804 0001020  26.1147 226.2067  1.00270295  2321
GALAXY 33 (G-33)        
1 54026U 22128A   23144.53816521  .00000083  00000+0  00000+0 0  9996
2 54026   0.0115 324.4244 0001739  90.5850 247.6163  1.00274428  2522
GALAXY 34 (G-34)        
1 54027U 22128B   23143.68885617  .00000062  00000+0  00000+0 0  9991
2 54027   0.0155 324.5392 0003205 120.7410 274.7568  1.00272254  2547
ANGOSAT 2               
1 54033U 22131A   23144.49638809  .00000139  00000+0  00000+0 0  9996
2 54033   0.0111  51.0387 0000272  59.1500 333.3300  1.00271765  2236
EUTELSAT HOTBIRD 13F    
1 54048U 22134A   23144.45049568  .00000004  00000+0  00000+0 0  9990
2 54048   0.0689 296.9978 0001685  32.9724  74.4711  1.00272124  2222
EUTELSAT HOTBIRD 13G    
1 54225U 22146A   23144.60262890  .00000112  00000+0  00000+0 0  9992
2 54225   0.0229 261.6013 0001397 295.6743 274.1530  1.00453754  2001
CHINASAT 19 (ZX 19)     
1 54230U 22148A   23144.62582181 -.00000076  00000+0  00000+0 0  9990
2 54230   0.0978  98.2741 0003920 173.6859 358.6027  1.00272819  2142
GALAXY 31 (G-31)        
1 54243U 22153A   23144.43471854  .00000017  00000+0  00000+0 0  9997
2 54243   0.0154 300.2458 0002361 352.2712 344.7545  1.00272633  1913
GALAXY 32 (G-32)        
1 54244U 22153B   23144.47363809 -.00000170  00000+0  00000+0 0  9993
2 54244   0.0173 352.6569 0002501  40.0586 288.6061  1.00271425  1913
EUTELSAT 10B            
1 54259U 22157A   23144.44354921  .00000013  00000+0  00000+0 0  9990
2 54259   0.0366 276.1622 0002077 122.8591   4.0030  1.00273838  1798
GALAXY 35 (G-35)        
1 54741U 22170A   23144.46578253 -.00000158  00000+0  00000+0 0  9990
2 54741   0.0094 358.1585 0000729 340.8633 337.3670  1.00271958  1661
GALAXY 36 (G-36)        
1 54742U 22170B   23144.45569080 -.00000181  00000+0  00000+0 0  9994
2 54742   0.0244  71.3899 0002936  11.3013 234.1501  1.00271521  1545
METEOSAT-12 (MTG-I1)    
1 54743U 22170C   23144.34771439 -.00000028  00000+0  00000+0 0  9996
2 54743   0.6386 308.8050 0003025 111.5969 302.8905  1.00274495  1756
SHIJIAN-23 (SJ-23)      
1 55131U 23002A   23144.64690824  .00000131  00000+0  00000+0 0  9998
2 55131   0.8284  92.9884 0000118 268.7871 156.2224  1.00453719  1281
USA 340                 
1 55138U 22144E   23136.76388889 -.00000287  00000+0  00000+0 0  9993
2 55138   3.0190  65.7891 0000098  88.0933 306.3390  1.00044829   496
USA 342                 
1 55263U 23008A   23143.54087701  .00000070  00000+0  00000+0 0  9994
2 55263   0.0093 168.2977 0000279 321.9041 174.9290  1.00269687  1285
LDPE-3A                 
1 55264U 23008B   23144.48553730  .00000082  00000+0  00000+0 0  9992
2 55264   0.2436  87.1841 0000570  72.8615 131.7824  0.99865824   589
ELEKTRO-L 4             
1 55506U 23016A   23143.86950347 -.00000055  00000+0  00000+0 0  9997
2 55506   0.2975 292.2682 0001848  54.0108  13.7169  1.00272285  1089
CHINASAT 26 (ZX 26)     
1 55686U 23023A   23144.66083728 -.00000350  00000+0  00000+0 0  9991
2 55686   0.0807  81.8271 0003898 356.0458 167.1892  1.00270613  1008
LUCH-5X (OLYMP-K 2)     
1 55841U 23031A   23144.41281867  .00000065  00000+0  00000+0 0  9992
2 55841   0.0386 264.8545 0000397 106.7326  27.6796  1.00271288   725
GAOFEN 13-02            
1 55912U 23036A   23144.54967236 -.00000230  00000+0  00000+0 0  9996
2 55912   2.9028 301.0594 0002126 282.1786   3.1088  1.00267492   867
SES-18                  
1 55970U 23038A   23144.43799715 -.00000051  00000+0  00000+0 0  9996
2 55970   0.0110 299.3059 0000930 345.9022 358.0984  1.00531215   874
SES-19                  
1 55971U 23039B   23144.42651156  .00000092  00000+0  00000+0 0  9997
2 55971   0.0520  97.3416 0001569 317.9592 205.0967  1.00272528   841
INTELSAT 40E            
1 56174U 23052A   23144.47363809 -.00000170  00000+0  00000+0 0  9996
2 56174   0.0176 278.8359 0001481 169.6800 232.8112  1.00272158   594
ARCTURUS                
1 56371U 23060B   23144.45934306  .00000132  00000+0  00000+0 0  9995
2 56371   0.0356   7.2164 0001612  66.3381 170.7661  1.00272135   239
